start=new Date('2023-03-27T00:00:00.000Z').valueOf();
sats=[{"SEMIMAJOR_AXIS":"6925.356","REF_FRAME":"TEME","APOAPSIS":"547.964","BSTAR":"0.00096105000000","ECCENTRICITY":"0.00010730","RA_OF_ASC_NODE":"314.3834","TLE_LINE2":"2 48117  53.0529 314.3834 0001073  78.4458 281.6651 15.06397720110102","ELEMENT_SET_NO":"999","MEAN_MOTION":"15.06397720","MEAN_MOTION_DDOT":"0.0000000000000","COUNTRY_CODE":"US","LAUNCH_DATE":"2021-04-07","NORAD_CAT_ID":"48117","INCLINATION":"53.0529","FILE":"3871964","PERIAPSIS":"546.477","TIME_SYSTEM":"UTC","CLASSIFICATION_TYPE":"U","OBJECT_TYPE":"PAYLOAD","ARG_OF_PERICENTER":"78.4458","TLE_LINE1":"1 48117U 21027AB  23085.92311681  .00014061  00000-0  96105-3 0  9998","OBJECT_NAME":"STARLINK-2455","PERIOD":"95.592","MEAN_ELEMENT_THEORY":"SGP4","EPHEMERIS_TYPE":"0","CENTER_NAME":"EARTH","MEAN_MOTION_DOT":"0.00014061","OBJECT_ID":"2021-027AB","SITE":"AFETR","MEAN_ANOMALY":"281.6651","EPOCH":"2023-03-26T22:09:17.292384","DECAY_DATE":null,"RCS_SIZE":"LARGE","GP_ID":"228917241","REV_AT_EPOCH":"11010"},{"BSTAR":"0.00318670000000","RA_OF_ASC_NODE":"314.3308","ECCENTRICITY":"0.00010290","SEMIMAJOR_AXIS":"6925.263","REF_FRAME":"TEME","APOAPSIS":"547.840","MEAN_MOTION":"15.06427997","TLE_LINE2":"2 48118  53.0538 314.3308 0001029  82.8633 277.2473 15.06427997110107","ELEMENT_SET_NO":"999","LAUNCH_DATE":"2021-04-07","COUNTRY_CODE":"US","MEAN_MOTION_DDOT":"0.0000000000000","INCLINATION":"53.0538","PERIAPSIS":"546.415","FILE":"3871964","NORAD_CAT_ID":"48118","OBJECT_TYPE":"PAYLOAD","ARG_OF_PERICENTER":"82.8633","OBJECT_NAME":"STARLINK-2458","TLE_LINE1":"1 48118U 21027AC  23085.93512010  .00047541  00000-0  31867-2 0  9991","TIME_SYSTEM":"UTC","CLASSIFICATION_TYPE":"U","CENTER_NAME":"EARTH","EPHEMERIS_TYPE":"0","PERIOD":"95.590","MEAN_ELEMENT_THEORY":"SGP4","OBJECT_ID":"2021-027AC","MEAN_MOTION_DOT":"0.00047541","RCS_SIZE":"LARGE","SITE":"AFETR","MEAN_ANOMALY":"277.2473","DECAY_DATE":null,"EPOCH":"2023-03-26T22:26:34.376640","REV_AT_EPOCH":"11010","GP_ID":"228917992"},{"REV_AT_EPOCH":"11009","GP_ID":"228916240","RCS_SIZE":"LARGE","SITE":"AFETR","MEAN_ANOMALY":"254.4600","EPOCH":"2023-03-26T22:20:01.997088","DECAY_DATE":null,"OBJECT_ID":"2021-027AD","MEAN_MOTION_DOT":"0.00020868","EPHEMERIS_TYPE":"0","CENTER_NAME":"EARTH","PERIOD":"95.595","MEAN_ELEMENT_THEORY":"SGP4","OBJECT_TYPE":"PAYLOAD","ARG_OF_PERICENTER":"105.6469","TLE_LINE1":"1 48119U 21027AD  23085.93057867  .00020868  00000-0  14171-2 0  9998","OBJECT_NAME":"STARLINK-2459","TIME_SYSTEM":"UTC","CLASSIFICATION_TYPE":"U","INCLINATION":"53.0528","FILE":"3871964","PERIAPSIS":"546.824","NORAD_CAT_ID":"48119","MEAN_MOTION":"15.06362670","TLE_LINE2":"2 48119  53.0528 314.3486 0000727 105.6469 254.4600 15.06362670110092","ELEMENT_SET_NO":"999","MEAN_MOTION_DDOT":"0.0000000000000","COUNTRY_CODE":"US","LAUNCH_DATE":"2021-04-07","BSTAR":"0.00141710000000","ECCENTRICITY":"0.00007270","RA_OF_ASC_NODE":"314.3486","SEMIMAJOR_AXIS":"6925.463","REF_FRAME":"TEME","APOAPSIS":"547.831"},{"INCLINATION":"53.0534","FILE":"3871964","PERIAPSIS":"546.918","NORAD_CAT_ID":"48120","ARG_OF_PERICENTER":"148.4068","OBJECT_TYPE":"PAYLOAD","TLE_LINE1":"1 48120U 21027AE  23085.87062110  .00022300  00000-0  15096-2 0  9990","OBJECT_NAME":"STARLINK-2460","CLASSIFICATION_TYPE":"U","TIME_SYSTEM":"UTC","BSTAR":"0.00150960000000","ECCENTRICITY":"0.00002470","RA_OF_ASC_NODE":"334.6274","SEMIMAJOR_AXIS":"6925.224","REF_FRAME":"TEME","APOAPSIS":"547.260","TLE_LINE2":"2 48120  53.0534 334.6274 0000247 148.4068 211.6936 15.06440588109829","ELEMENT_SET_NO":"999","MEAN_MOTION":"15.06440588","MEAN_MOTION_DDOT":"0.0000000000000","COUNTRY_CODE":"US","LAUNCH_DATE":"2021-04-07","RCS_SIZE":"LARGE","SITE":"AFETR","MEAN_ANOMALY":"211.6936","EPOCH":"2023-03-26T20:53:41.663040","DECAY_DATE":null,"REV_AT_EPOCH":"10982","GP_ID":"228916490","EPHEMERIS_TYPE":"0","CENTER_NAME":"EARTH","PERIOD":"95.590","MEAN_ELEMENT_THEORY":"SGP4","OBJECT_ID":"2021-027AE","MEAN_MOTION_DOT":"0.00022300"},{"REV_AT_EPOCH":"10995","GP_ID":"228917742","RCS_SIZE":"LARGE","SITE":"AFETR","MEAN_ANOMALY":"256.6587","EPOCH":"2023-03-26T21:48:05.968224","DECAY_DATE":null,"OBJECT_ID":"2021-027AF","MEAN_MOTION_DOT":"0.00041257","EPHEMERIS_TYPE":"0","CENTER_NAME":"EARTH","PERIOD":"95.592","MEAN_ELEMENT_THEORY":"SGP4","ARG_OF_PERICENTER":"103.4540","OBJECT_TYPE":"PAYLOAD","TLE_LINE1":"1 48121U 21027AF  23085.90840241  .00041257  00000-0  27721-2 0  9994","OBJECT_NAME":"STARLINK-2462","TIME_SYSTEM":"UTC","CLASSIFICATION_TYPE":"U","INCLINATION":"53.0531","FILE":"3871964","PERIAPSIS":"546.340","NORAD_CAT_ID":"48121","ELEMENT_SET_NO":"999","TLE_LINE2":"2 48121  53.0531 324.4552 0001238 103.4540 256.6587 15.06405359109952","MEAN_MOTION":"15.06405359","COUNTRY_CODE":"US","MEAN_MOTION_DDOT":"0.0000000000000","LAUNCH_DATE":"2021-04-07","BSTAR":"0.00277210000000","ECCENTRICITY":"0.00012380","RA_OF_ASC_NODE":"324.4552","SEMIMAJOR_AXIS":"6925.332","REF_FRAME":"TEME","APOAPSIS":"548.054"},{"APOAPSIS":"547.720","SEMIMAJOR_AXIS":"6925.308","REF_FRAME":"TEME","ECCENTRICITY":"0.00007890","RA_OF_ASC_NODE":"319.4350","BSTAR":"0.00306680000000","MEAN_MOTION_DDOT":"0.0000000000000","COUNTRY_CODE":"US","LAUNCH_DATE":"2021-04-07","TLE_LINE2":"2 48122  53.0536 319.4350 0000789 107.5925 252.5151 15.06413134110033","MEAN_MOTION":"15.06413134","ELEMENT_SET_NO":"999","NORAD_CAT_ID":"48122","FILE":"3871964","PERIAPSIS":"546.627","INCLINATION":"53.0536","TIME_SYSTEM":"UTC","CLASSIFICATION_TYPE":"U","TLE_LINE1":"1 48122U 21027AG  23085.90702043  .00045712  00000-0  30668-2 0  9996","OBJECT_NAME":"STARLINK-2463","ARG_OF_PERICENTER":"107.5925","OBJECT_TYPE":"PAYLOAD","MEAN_ELEMENT_THEORY":"SGP4","PERIOD":"95.591","EPHEMERIS_TYPE":"0","CENTER_NAME":"EARTH","MEAN_MOTION_DOT":"0.00045712","OBJECT_ID":"2021-027AG","EPOCH":"2023-03-26T21:46:06.565152","DECAY_DATE":null,"MEAN_ANOMALY":"252.5151","SITE":"AFETR","RCS_SIZE":"LARGE","GP_ID":"228917492","REV_AT_EPOCH":"11003"},{"SITE":"AFETR","MEAN_ANOMALY":"277.5871","DECAY_DATE":null,"EPOCH":"2023-03-26T22:00:03.713760","RCS_SIZE":"LARGE","GP_ID":"228916741","REV_AT_EPOCH":"11010","PERIOD":"95.593","MEAN_ELEMENT_THEORY":"SGP4","CENTER_NAME":"EARTH","EPHEMERIS_TYPE":"0","MEAN_MOTION_DOT":"0.00027397","OBJECT_ID":"2021-027AH","NORAD_CAT_ID":"48123","INCLINATION":"53.0533","PERIAPSIS":"546.613","FILE":"3871964","CLASSIFICATION_TYPE":"U","TIME_SYSTEM":"UTC","OBJECT_TYPE":"PAYLOAD","ARG_OF_PERICENTER":"82.5224","OBJECT_NAME":"STARLINK-2464","TLE_LINE1":"1 48123U 21027AH  23085.91670965  .00027397  00000-0  18518-2 0  9994","SEMIMAJOR_AXIS":"6925.396","REF_FRAME":"TEME","APOAPSIS":"547.910","BSTAR":"0.00185180000000","RA_OF_ASC_NODE":"314.4194","ECCENTRICITY":"0.00009360","TLE_LINE2":"2 48123  53.0533 314.4194 0000936  82.5224 277.5871 15.06384388110102","MEAN_MOTION":"15.06384388","ELEMENT_SET_NO":"999","LAUNCH_DATE":"2021-04-07","COUNTRY_CODE":"US","MEAN_MOTION_DDOT":"0.0000000000000"},{"GP_ID":"228916991","REV_AT_EPOCH":"10995","DECAY_DATE":null,"EPOCH":"2023-03-26T21:58:44.307840","SITE":"AFETR","MEAN_ANOMALY":"243.6601","RCS_SIZE":"LARGE","MEAN_MOTION_DOT":"0.00027343","OBJECT_ID":"2021-027AJ","MEAN_ELEMENT_THEORY":"SGP4","PERIOD":"95.593","CENTER_NAME":"EARTH","EPHEMERIS_TYPE":"0","TIME_SYSTEM":"UTC","CLASSIFICATION_TYPE":"U","OBJECT_NAME":"STARLINK-2465","TLE_LINE1":"1 48124U 21027AJ  23085.91579060  .00027343  00000-0  18485-2 0  9993","OBJECT_TYPE":"PAYLOAD","ARG_OF_PERICENTER":"116.4496","NORAD_CAT_ID":"48124","FILE":"3871964","PERIAPSIS":"546.552","INCLINATION":"53.0541","LAUNCH_DATE":"2021-04-07","COUNTRY_CODE":"US","MEAN_MOTION_DDOT":"0.0000000000000","MEAN_MOTION":"15.06378812","TLE_LINE2":"2 48124  53.0541 324.4224 0001049 116.4496 243.6601 15.06378812109952","ELEMENT_SET_NO":"999","APOAPSIS":"548.005","SEMIMAJOR_AXIS":"6925.413","REF_FRAME":"TEME","RA_OF_ASC_NODE":"324.4224","ECCENTRICITY":"0.00010490","BSTAR":"0.00184850000000"},{"CLASSIFICATION_TYPE":"U","TIME_SYSTEM":"UTC","ARG_OF_PERICENTER":"122.4488","OBJECT_TYPE":"PAYLOAD","OBJECT_NAME":"STARLINK-2466","TLE_LINE1":"1 48125U 21027AK  23085.92965960  .00020385  00000-0  13875-2 0  9990","NORAD_CAT_ID":"48125","INCLINATION":"53.0533","FILE":"3871964","PERIAPSIS":"546.361","TLE_LINE2":"2 48125  53.0533 334.5995 0001708 122.4488 237.6667 15.06292108109825","MEAN_MOTION":"15.06292108","ELEMENT_SET_NO":"999","MEAN_MOTION_DDOT":"0.0000000000000","COUNTRY_CODE":"US","LAUNCH_DATE":"2021-04-07","SEMIMAJOR_AXIS":"6925.679","REF_FRAME":"TEME","APOAPSIS":"548.727","BSTAR":"0.00138750000000","ECCENTRICITY":"0.00017080","RA_OF_ASC_NODE":"334.5995","GP_ID":"228917242","REV_AT_EPOCH":"10982","SITE":"AFETR","MEAN_ANOMALY":"237.6667","EPOCH":"2023-03-26T22:18:42.589440","DECAY_DATE":null,"RCS_SIZE":"LARGE","MEAN_MOTION_DOT":"0.00020385","OBJECT_ID":"2021-027AK","PERIOD":"95.599","MEAN_ELEMENT_THEORY":"SGP4","EPHEMERIS_TYPE":"0","CENTER_NAME":"EARTH"},{"MEAN_MOTION_DOT":"0.00027052","OBJECT_ID":"2021-027AL","PERIOD":"95.593","MEAN_ELEMENT_THEORY":"SGP4","CENTER_NAME":"EARTH","EPHEMERIS_TYPE":"0","GP_ID":"228917993","REV_AT_EPOCH":"11011","SITE":"AFETR","MEAN_ANOMALY":"270.6982","DECAY_DATE":null,"EPOCH":"2023-03-26T22:47:50.504640","RCS_SIZE":"LARGE","MEAN_MOTION":"15.06380283","TLE_LINE2":"2 48126  53.0521 314.2688 0001004  89.4121 270.6982 15.06380283110115","ELEMENT_SET_NO":"999","LAUNCH_DATE":"2021-04-07","MEAN_MOTION_DDOT":"0.0000000000000","COUNTRY_CODE":"US","SEMIMAJOR_AXIS":"6925.409","REF_FRAME":"TEME","APOAPSIS":"547.969","BSTAR":"0.00182900000000","RA_OF_ASC_NODE":"314.2688","ECCENTRICITY":"0.00010040","TIME_SYSTEM":"UTC","CLASSIFICATION_TYPE":"U","OBJECT_TYPE":"PAYLOAD","ARG_OF_PERICENTER":"89.4121","OBJECT_NAME":"STARLINK-2467","TLE_LINE1":"1 48126U 21027AL  23085.94989010  .00027052  00000-0  18290-2 0  9999","NORAD_CAT_ID":"48126","INCLINATION":"53.0521","FILE":"3871964","PERIAPSIS":"546.579"}];
